ONEWEB-0644             
1 55808U 23029N   25243.24590381  .00000027  00000+0  35516-4 0  9992
2 55808  87.9277   2.6465 0001293  93.4514 266.6767 13.19723662120667
ONEWEB-0645             
1 55809U 23029P   25243.24197149  .00000049  00000+0  89943-4 0  9995
2 55809  87.9265   2.6345 0001734  87.7159 272.4172 13.19725970120662
ONEWEB-0646             
1 55810U 23029Q   25243.28019797  .00000057  00000+0  11180-3 0  9999
2 55810  87.9265   2.6225 0001547  99.7881 260.3426 13.19254895120658
ONEWEB-0648             
1 55811U 23029R   25243.25586500 -.00000056  00000+0 -18583-3 0  9993
2 55811  87.9077 347.4251 0001293  68.5524 291.5744 13.14504017121306
ONEWEB-0649             
1 55812U 23029S   25243.23485954  .00000084  00000+0  17823-3 0  9998
2 55812  87.9274   2.6240 0001458  85.7890 274.3409 13.19726154120684
ONEWEB-0650             
1 55813U 23029T   25242.85104094 -.00000016  00000+0 -73098-4 0  9993
2 55813  87.9274   2.7109 0001586  96.7710 263.3603 13.19725544120603
ONEWEB-0652             
1 55814U 23029U   25243.23683326 -.00000114  00000+0 -34326-3 0  9996
2 55814  87.9092 347.4422 0001986 102.1082 258.0271 13.14503085121272
ONEWEB-0653             
1 55815U 23029V   25243.29709747  .00000191  00000+0  47955-3 0  9994
2 55815  87.9094 347.4196 0002011  96.2654 263.8705 13.14503786121310
ONEWEB-0654             
1 55816U 23029W   25243.29232678  .00000193  00000+0  48647-3 0  9990
2 55816  87.9092 347.4189 0002172 102.5223 257.6150 13.14504096121334
ONEWEB-0656             
1 55817U 23029X   25243.20708767  .00000113  00000+0  24598-3 0  9990
2 55817  87.9298 332.2219 0002344 102.9858 257.1538 13.20771963122879
ONEWEB-0657             
1 55818U 23029Y   25243.07375803  .00000285  00000+0  68057-3 0  9995
2 55818  87.9272   2.6714 0001986 122.2005 237.9321 13.19724752120641
ONEWEB-0658             
1 55819U 23029Z   25243.06901372 -.00000011  00000+0 -60195-4 0  9996
2 55819  87.9285   2.6085 0001318  93.9635 266.1648 13.19725077120657
ONEWEB-0660             
1 55820U 23029AA  25243.27013925  .00000131  00000+0  32014-3 0  9998
2 55820  87.9094 347.3953 0001774  88.6359 271.4974 13.14503326121311
ONEWEB-0661             
1 55821U 23029AB  25243.22890737 -.00000019  00000+0 -86728-4 0  9997
2 55821  87.9098 347.4753 0001920  88.3813 271.7537 13.14502882121291
ONEWEB-0662             
1 55822U 23029AC  25243.26379244  .00000112  00000+0  26767-3 0  9995
2 55822  87.9090 347.4751 0001700  88.4934 271.6390 13.14503044121346
ONEWEB-0663             
1 55823U 23029AD  25243.25995834  .00000063  00000+0  12363-3 0  9996
2 55823  87.9306 332.2680 0001625  85.3818 274.7501 13.20844335122878
ONEWEB-0664             
1 55824U 23029AE  25243.19445990  .00000112  00000+0  24431-3 0  9997
2 55824  87.9298 332.3024 0002201  92.2239 267.9147 13.20770060122869
