[{"OBJECT_NAME":"ONEWEB-0644","OBJECT_ID":"2023-029N","EPOCH":"2025-08-31T05:54:06.089184","MEAN_MOTION":13.19723662,"ECCENTRICITY":0.00012934,"INCLINATION":87.9277,"RA_OF_ASC_NODE":2.6465,"ARG_OF_PERICENTER":93.4514,"MEAN_ANOMALY":266.6767,"EPHEMERIS_TYPE":0,"CLASSIFICATION_TYPE":"U","NORAD_CAT_ID":55808,"ELEMENT_SET_NO":999,"REV_AT_EPOCH":12066,"BSTAR":3.5516077e-5,"MEAN_MOTION_DOT":2.7e-7,"MEAN_MOTION_DDOT":0},{"OBJECT_NAME":"ONEWEB-0645","OBJECT_ID":"2023-029P","EPOCH":"2025-08-31T05:48:26.336736","MEAN_MOTION":13.1972597,"ECCENTRICITY":0.00017343,"INCLINATION":87.9265,"RA_OF_ASC_NODE":2.6345,"ARG_OF_PERICENTER":87.7159,"MEAN_ANOMALY":272.4172,"EPHEMERIS_TYPE":0,"CLASSIFICATION_TYPE":"U","NORAD_CAT_ID":55809,"ELEMENT_SET_NO":999,"REV_AT_EPOCH":12066,"BSTAR":8.9943261e-5,"MEAN_MOTION_DOT":4.9e-7,"MEAN_MOTION_DDOT":0},{"OBJECT_NAME":"ONEWEB-0646","OBJECT_ID":"2023-029Q","EPOCH":"2025-08-31T06:43:29.104608","MEAN_MOTION":13.19254895,"ECCENTRICITY":0.00015474,"INCLINATION":87.9265,"RA_OF_ASC_NODE":2.6225,"ARG_OF_PERICENTER":99.7881,"MEAN_ANOMALY":260.3426,"EPHEMERIS_TYPE":0,"CLASSIFICATION_TYPE":"U","NORAD_CAT_ID":55810,"ELEMENT_SET_NO":999,"REV_AT_EPOCH":12065,"BSTAR":0.00011180402,"MEAN_MOTION_DOT":5.7e-7,"MEAN_MOTION_DDOT":0},{"OBJECT_NAME":"ONEWEB-0648","OBJECT_ID":"2023-029R","EPOCH":"2025-08-31T06:08:26.736000","MEAN_MOTION":13.14504017,"ECCENTRICITY":0.00012932,"INCLINATION":87.9077,"RA_OF_ASC_NODE":347.4251,"ARG_OF_PERICENTER":68.5524,"MEAN_ANOMALY":291.5744,"EPHEMERIS_TYPE":0,"CLASSIFICATION_TYPE":"U","NORAD_CAT_ID":55811,"ELEMENT_SET_NO":999,"REV_AT_EPOCH":12130,"BSTAR":-0.0001858297,"MEAN_MOTION_DOT":-5.6e-7,"MEAN_MOTION_DDOT":0},{"OBJECT_NAME":"ONEWEB-0649","OBJECT_ID":"2023-029S","EPOCH":"2025-08-31T05:38:11.864256","MEAN_MOTION":13.19726154,"ECCENTRICITY":0.00014588,"INCLINATION":87.9274,"RA_OF_ASC_NODE":2.624,"ARG_OF_PERICENTER":85.789,"MEAN_ANOMALY":274.3409,"EPHEMERIS_TYPE":0,"CLASSIFICATION_TYPE":"U","NORAD_CAT_ID":55812,"ELEMENT_SET_NO":999,"REV_AT_EPOCH":12068,"BSTAR":0.00017822755,"MEAN_MOTION_DOT":8.4e-7,"MEAN_MOTION_DDOT":0},{"OBJECT_NAME":"ONEWEB-0650","OBJECT_ID":"2023-029T","EPOCH":"2025-08-30T20:25:29.937216","MEAN_MOTION":13.19725544,"ECCENTRICITY":0.00015867,"INCLINATION":87.9274,"RA_OF_ASC_NODE":2.7109,"ARG_OF_PERICENTER":96.771,"MEAN_ANOMALY":263.3603,"EPHEMERIS_TYPE":0,"CLASSIFICATION_TYPE":"U","NORAD_CAT_ID":55813,"ELEMENT_SET_NO":999,"REV_AT_EPOCH":12060,"BSTAR":-7.309832e-5,"MEAN_MOTION_DOT":-1.6e-7,"MEAN_MOTION_DDOT":0},{"OBJECT_NAME":"ONEWEB-0652","OBJECT_ID":"2023-029U","EPOCH":"2025-08-31T05:41:02.393664","MEAN_MOTION":13.14503085,"ECCENTRICITY":0.00019865,"INCLINATION":87.9092,"RA_OF_ASC_NODE":347.4422,"ARG_OF_PERICENTER":102.1082,"MEAN_ANOMALY":258.0271,"EPHEMERIS_TYPE":0,"CLASSIFICATION_TYPE":"U","NORAD_CAT_ID":55814,"ELEMENT_SET_NO":999,"REV_AT_EPOCH":12127,"BSTAR":-0.00034326159,"MEAN_MOTION_DOT":-1.14e-6,"MEAN_MOTION_DDOT":0},{"OBJECT_NAME":"ONEWEB-0653","OBJECT_ID":"2023-029V","EPOCH":"2025-08-31T07:07:49.221408","MEAN_MOTION":13.14503786,"ECCENTRICITY":0.00020113,"INCLINATION":87.9094,"RA_OF_ASC_NODE":347.4196,"ARG_OF_PERICENTER":96.2654,"MEAN_ANOMALY":263.8705,"EPHEMERIS_TYPE":0,"CLASSIFICATION_TYPE":"U","NORAD_CAT_ID":55815,"ELEMENT_SET_NO":999,"REV_AT_EPOCH":12131,"BSTAR":0.00047954774,"MEAN_MOTION_DOT":1.91e-6,"MEAN_MOTION_DDOT":0},{"OBJECT_NAME":"ONEWEB-0654","OBJECT_ID":"2023-029W","EPOCH":"2025-08-31T07:00:57.033792","MEAN_MOTION":13.14504096,"ECCENTRICITY":0.00021724,"INCLINATION":87.9092,"RA_OF_ASC_NODE":347.4189,"ARG_OF_PERICENTER":102.5223,"MEAN_ANOMALY":257.615,"EPHEMERIS_TYPE":0,"CLASSIFICATION_TYPE":"U","NORAD_CAT_ID":55816,"ELEMENT_SET_NO":999,"REV_AT_EPOCH":12133,"BSTAR":0.00048646908,"MEAN_MOTION_DOT":1.93e-6,"MEAN_MOTION_DDOT":0},{"OBJECT_NAME":"ONEWEB-0656","OBJECT_ID":"2023-029X","EPOCH":"2025-08-31T04:58:12.374688","MEAN_MOTION":13.20771963,"ECCENTRICITY":0.00023446,"INCLINATION":87.9298,"RA_OF_ASC_NODE":332.2219,"ARG_OF_PERICENTER":102.9858,"MEAN_ANOMALY":257.1538,"EPHEMERIS_TYPE":0,"CLASSIFICATION_TYPE":"U","NORAD_CAT_ID":55817,"ELEMENT_SET_NO":999,"REV_AT_EPOCH":12287,"BSTAR":0.00024597615,"MEAN_MOTION_DOT":1.13e-6,"MEAN_MOTION_DDOT":0},{"OBJECT_NAME":"ONEWEB-0657","OBJECT_ID":"2023-029Y","EPOCH":"2025-08-31T01:46:12.693792","MEAN_MOTION":13.19724752,"ECCENTRICITY":0.00019863,"INCLINATION":87.9272,"RA_OF_ASC_NODE":2.6714,"ARG_OF_PERICENTER":122.2005,"MEAN_ANOMALY":237.9321,"EPHEMERIS_TYPE":0,"CLASSIFICATION_TYPE":"U","NORAD_CAT_ID":55818,"ELEMENT_SET_NO":999,"REV_AT_EPOCH":12064,"BSTAR":0.00068056943,"MEAN_MOTION_DOT":2.85e-6,"MEAN_MOTION_DDOT":0},{"OBJECT_NAME":"ONEWEB-0658","OBJECT_ID":"2023-029Z","EPOCH":"2025-08-31T01:39:22.785408","MEAN_MOTION":13.19725077,"ECCENTRICITY":0.00013183,"INCLINATION":87.9285,"RA_OF_ASC_NODE":2.6085,"ARG_OF_PERICENTER":93.9635,"MEAN_ANOMALY":266.1648,"EPHEMERIS_TYPE":0,"CLASSIFICATION_TYPE":"U","NORAD_CAT_ID":55819,"ELEMENT_SET_NO":999,"REV_AT_EPOCH":12065,"BSTAR":-6.0194926e-5,"MEAN_MOTION_DOT":-1.1e-7,"MEAN_MOTION_DDOT":0},{"OBJECT_NAME":"ONEWEB-0660","OBJECT_ID":"2023-029AA","EPOCH":"2025-08-31T06:29:00.031200","MEAN_MOTION":13.14503326,"ECCENTRICITY":0.00017746,"INCLINATION":87.9094,"RA_OF_ASC_NODE":347.3953,"ARG_OF_PERICENTER":88.6359,"MEAN_ANOMALY":271.4974,"EPHEMERIS_TYPE":0,"CLASSIFICATION_TYPE":"U","NORAD_CAT_ID":55820,"ELEMENT_SET_NO":999,"REV_AT_EPOCH":12131,"BSTAR":0.00032013501,"MEAN_MOTION_DOT":1.31e-6,"MEAN_MOTION_DDOT":0},{"OBJECT_NAME":"ONEWEB-0661","OBJECT_ID":"2023-029AB","EPOCH":"2025-08-31T05:29:37.596768","MEAN_MOTION":13.14502882,"ECCENTRICITY":0.000192,"INCLINATION":87.9098,"RA_OF_ASC_NODE":347.4753,"ARG_OF_PERICENTER":88.3813,"MEAN_ANOMALY":271.7537,"EPHEMERIS_TYPE":0,"CLASSIFICATION_TYPE":"U","NORAD_CAT_ID":55821,"ELEMENT_SET_NO":999,"REV_AT_EPOCH":12129,"BSTAR":-8.6728382e-5,"MEAN_MOTION_DOT":-1.9e-7,"MEAN_MOTION_DDOT":0},{"OBJECT_NAME":"ONEWEB-0662","OBJECT_ID":"2023-029AC","EPOCH":"2025-08-31T06:19:51.666816","MEAN_MOTION":13.14503044,"ECCENTRICITY":0.00017006,"INCLINATION":87.909,"RA_OF_ASC_NODE":347.4751,"ARG_OF_PERICENTER":88.4934,"MEAN_ANOMALY":271.639,"EPHEMERIS_TYPE":0,"CLASSIFICATION_TYPE":"U","NORAD_CAT_ID":55822,"ELEMENT_SET_NO":999,"REV_AT_EPOCH":12134,"BSTAR":0.00026766647,"MEAN_MOTION_DOT":1.12e-6,"MEAN_MOTION_DDOT":0},{"OBJECT_NAME":"ONEWEB-0663","OBJECT_ID":"2023-029AD","EPOCH":"2025-08-31T06:14:20.400576","MEAN_MOTION":13.20844335,"ECCENTRICITY":0.00016257,"INCLINATION":87.9306,"RA_OF_ASC_NODE":332.268,"ARG_OF_PERICENTER":85.3818,"MEAN_ANOMALY":274.7501,"EPHEMERIS_TYPE":0,"CLASSIFICATION_TYPE":"U","NORAD_CAT_ID":55823,"ELEMENT_SET_NO":999,"REV_AT_EPOCH":12287,"BSTAR":0.0001236273,"MEAN_MOTION_DOT":6.3e-7,"MEAN_MOTION_DDOT":0},{"OBJECT_NAME":"ONEWEB-0664","OBJECT_ID":"2023-029AE","EPOCH":"2025-08-31T04:40:01.335360","MEAN_MOTION":13.2077006,"ECCENTRICITY":0.00022011,"INCLINATION":87.9298,"RA_OF_ASC_NODE":332.3024,"ARG_OF_PERICENTER":92.2239,"MEAN_ANOMALY":267.9147,"EPHEMERIS_TYPE":0,"CLASSIFICATION_TYPE":"U","NORAD_CAT_ID":55824,"ELEMENT_SET_NO":999,"REV_AT_EPOCH":12286,"BSTAR":0.00024431048,"MEAN_MOTION_DOT":1.12e-6,"MEAN_MOTION_DDOT":0}]
